OBJECT_NAME,OBJECT_ID,EPOCH,MEAN_MOTION,ECCENTRICITY,INCLINATION,RA_OF_ASC_NODE,ARG_OF_PERICENTER,MEAN_ANOMALY,EPHEMERIS_TYPE,CLASSIFICATION_TYPE,NORAD_CAT_ID,ELEMENT_SET_NO,REV_AT_EPOCH,BSTAR,MEAN_MOTION_DOT,MEAN_MOTION_DDOT
STARLINK-37374,2026-111F,2026-06-18T03:05:03.702912,15.49334176,.00012343,53.1599,148.8146,146.8946,213.2140,0,U,69153,999,438,.68568888E-3,.37906E-3,0
STARLINK-37235,2026-111G,2026-06-18T02:02:59.040384,15.49316426,.00009672,53.1603,149.2675,81.5537,278.5581,0,U,69154,999,437,.64571429E-3,.35637E-3,0
STARLINK-37329,2026-111H,2026-06-18T06:00:02.000160,15.52822996,.0001801,53.1607,146.8121,96.1752,206.8489,0,U,69155,999,572,-.37640566E-1,-.2108978E-1,0
STARLINK-37345,2026-111J,2026-06-18T06:00:02.000160,15.54636952,.00011742,53.1606,146.7358,112.1272,228.0709,0,U,69156,999,572,-.4276309E-1,-.2551465E-1,0
STARLINK-37353,2026-111K,2026-06-18T06:00:02.000160,15.55012870,.00011054,53.1607,146.7242,104.4131,241.5401,0,U,69157,999,572,-.42290768E-1,-.2557801E-1,0
STARLINK-37363,2026-111L,2026-06-18T06:00:02.000160,15.54854446,.00012112,53.1603,146.7308,86.4716,256.2610,0,U,69158,999,572,-.4161327E-1,-.2458971E-1,0
STARLINK-37343,2026-111M,2026-06-18T03:05:15.890496,15.49327536,.00017347,53.1611,148.8191,114.8929,245.2261,0,U,69159,999,438,.98521069E-3,.54767E-3,0
STARLINK-37328,2026-111N,2026-06-18T06:00:02.000160,15.55546061,.00009673,53.1603,146.6824,104.3443,262.0039,0,U,69160,999,572,-.40695399E-1,-.2466118E-1,0
STARLINK-37311,2026-111P,2026-06-18T06:00:02.000160,15.58574196,.0001187,53.1600,146.7381,101.8363,237.5630,0,U,69161,999,572,-.36588161E-1,-.2483537E-1,0
STARLINK-36286,2026-111Q,2026-06-18T06:00:02.000160,15.49280323,.00018945,53.1600,147.1482,101.5056,35.5418,0,U,69162,999,572,.47049519E-3,.25779E-3,0
STARLINK-37196,2026-111R,2026-06-18T06:00:02.000160,15.59776240,.0000954,53.1602,146.7352,91.6903,249.3461,0,U,69163,999,572,-.35593936E-1,-.2523707E-1,0
STARLINK-36288,2026-111S,2026-06-18T06:00:02.000160,15.49284373,.00009212,53.1602,147.1186,104.6512,46.8542,0,U,69164,999,572,.67351794E-3,.37156E-3,0
STARLINK-37445,2026-111T,2026-06-18T06:00:02.000160,15.49293531,.00008098,53.1601,147.2227,58.8354,41.3145,0,U,69165,999,572,.47629608E-3,.26115E-3,0
STARLINK-37491,2026-111U,2026-06-18T06:00:02.000160,15.52995596,.00021907,53.1604,146.8934,86.8464,175.9280,0,U,69166,999,572,-.38056445E-1,-.2141877E-1,0
STARLINK-37474,2026-111V,2026-06-18T06:00:02.000160,15.59822588,.00012696,53.1597,146.7321,121.1613,221.1003,0,U,69167,999,572,-.22266402E-1,-.1610302E-1,0
STARLINK-37469,2026-111W,2026-06-17T22:50:53.461824,15.49352274,.00010611,53.1587,149.8529,85.1004,275.0127,0,U,69168,999,435,.86709766E-3,.48147E-3,0
STARLINK-37515,2026-111X,2026-06-18T06:00:02.000160,15.49257056,.00009564,53.1604,146.9745,82.7126,139.3151,0,U,69169,999,572,.77457249E-3,.42787E-3,0
STARLINK-37437,2026-111Y,2026-06-18T06:00:02.000160,15.53165500,.00015067,53.1605,146.7945,103.5788,206.3455,0,U,69170,999,572,-.40190019E-1,-.2259404E-1,0
STARLINK-37392,2026-111Z,2026-06-18T06:00:02.000160,15.54288313,.00014879,53.1601,146.8883,82.9189,181.1200,0,U,69171,999,572,-.41583908E-1,-.2413374E-1,0
STARLINK-37472,2026-111AA,2026-06-18T06:00:02.000160,15.49292238,.00007877,53.1598,147.4363,102.4421,250.2860,0,U,69172,999,572,.41392419E-3,.22626E-3,0
STARLINK-37461,2026-111AB,2026-06-18T03:17:52.835712,15.49321409,.00011667,53.1599,148.8748,80.8336,279.2805,0,U,69173,999,438,.61274389E-3,.33792E-3,0
STARLINK-37333,2026-111AC,2026-06-18T06:00:02.000160,15.49264637,.00006959,53.1602,147.1414,74.5196,65.0148,0,U,69174,999,572,.55095026E-3,.30264E-3,0
STARLINK-37385,2026-111AD,2026-06-18T03:06:49.484160,15.49337789,.00021843,53.1595,148.8178,138.6360,221.4815,0,U,69175,999,438,.56267499E-3,.31002E-3,0
STARLINK-37414,2026-111AE,2026-06-18T06:00:02.000160,15.49271738,.00014603,53.1604,146.9471,103.2283,131.4767,0,U,69176,999,572,.92798746E-3,.51435E-3,0
STRIX-7,2026-112A,2026-06-18T05:41:09.781728,15.01438734,.00231638,44.9069,186.9358,53.1879,307.1113,0,U,69177,999,403,.13631677E-3,.1562E-4,0
SHENZHOU-23 (SZ-23),2026-113A,2026-06-18T04:37:33.910176,15.60850984,.00073978,41.4698,315.8819,85.5010,274.6674,0,U,69180,999,29364,.23482026E-3,.19911E-3,0
STARLINK-37380,2026-114A,2026-06-18T07:06:29.887200,15.78099853,.00014449,53.1568,196.9744,128.1861,231.9291,0,U,69182,999,494,.85525326E-3,.150779E-2,0
STARLINK-37089,2026-114B,2026-06-18T07:05:09.388320,15.78039390,.00007675,53.1572,196.9686,90.8821,269.2288,0,U,69183,999,494,.11528728E-2,.204216E-2,0
STARLINK-37428,2026-114C,2026-06-18T07:03:07.864992,15.78085466,.00009473,53.1569,196.9591,65.6301,294.4819,0,U,69184,999,494,.9482317E-3,.167465E-2,0
