STARLINK-37374          
1 69153U 26111F   26169.12851508  .00037906  00000+0  68569-3 0  9990
2 69153  53.1599 148.8146 0001234 146.8946 213.2140 15.49334176  4389
STARLINK-37235          
1 69154U 26111G   26169.08540556  .00035637  00000+0  64571-3 0  9992
2 69154  53.1603 149.2675 0000967  81.5537 278.5581 15.49316426  4371
STARLINK-37329          
1 69155U 26111H   26169.25002315 -.02108978  00000+0 -37641-1 0  9997
2 69155  53.1607 146.8121 0001801  96.1752 206.8489 15.52822996  5723
STARLINK-37345          
1 69156U 26111J   26169.25002315 -.02551465  00000+0 -42763-1 0  9992
2 69156  53.1606 146.7358 0001174 112.1272 228.0709 15.54636952  5721
STARLINK-37353          
1 69157U 26111K   26169.25002315 -.02557801  00000+0 -42291-1 0  9999
2 69157  53.1607 146.7242 0001105 104.4131 241.5401 15.55012870  5724
STARLINK-37363          
1 69158U 26111L   26169.25002315 -.02458971  00000+0 -41613-1 0  9995
2 69158  53.1603 146.7308 0001211  86.4716 256.2610 15.54854446  5727
STARLINK-37343          
1 69159U 26111M   26169.12865614  .00054767  00000+0  98521-3 0  9994
2 69159  53.1611 148.8191 0001734 114.8929 245.2261 15.49327536  4382
STARLINK-37328          
1 69160U 26111N   26169.25002315 -.02466118  00000+0 -40695-1 0  9999
2 69160  53.1603 146.6824 0000967 104.3443 262.0039 15.55546061  5728
STARLINK-37311          
1 69161U 26111P   26169.25002315 -.02483537  00000+0 -36588-1 0  9990
2 69161  53.1600 146.7381 0001187 101.8363 237.5630 15.58574196  5720
STARLINK-36286          
1 69162U 26111Q   26169.25002315  .00025779  00000+0  47050-3 0  9995
2 69162  53.1600 147.1482 0001894 101.5056  35.5418 15.49280323  5725
STARLINK-37196          
1 69163U 26111R   26169.25002315 -.02523707  00000+0 -35594-1 0  9992
2 69163  53.1602 146.7352 0000954  91.6903 249.3461 15.59776240  5727
STARLINK-36288          
1 69164U 26111S   26169.25002315  .00037156  00000+0  67352-3 0  9996
2 69164  53.1602 147.1186 0000921 104.6512  46.8542 15.49284373  5723
STARLINK-37445          
1 69165U 26111T   26169.25002315  .00026115  00000+0  47630-3 0  9997
2 69165  53.1601 147.2227 0000809  58.8354  41.3145 15.49293531  5724
STARLINK-37491          
1 69166U 26111U   26169.25002315 -.02141877  00000+0 -38056-1 0  9995
2 69166  53.1604 146.8934 0002190  86.8464 175.9280 15.52995596  5724
STARLINK-37474          
1 69167U 26111V   26169.25002315 -.01610302  00000+0 -22266-1 0  9995
2 69167  53.1597 146.7321 0001269 121.1613 221.1003 15.59822588  5724
STARLINK-37469          
1 69168U 26111W   26168.95200766  .00048147  00000+0  86710-3 0  9997
2 69168  53.1587 149.8529 0001061  85.1004 275.0127 15.49352274  4353
STARLINK-37515          
1 69169U 26111X   26169.25002315  .00042787  00000+0  77457-3 0  9994
2 69169  53.1604 146.9745 0000956  82.7126 139.3151 15.49257056  5725
STARLINK-37437          
1 69170U 26111Y   26169.25002315 -.02259404  00000+0 -40190-1 0  9998
2 69170  53.1605 146.7945 0001506 103.5788 206.3455 15.53165500  5725
STARLINK-37392          
1 69171U 26111Z   26169.25002315 -.02413374  00000+0 -41584-1 0  9995
2 69171  53.1601 146.8883 0001487  82.9189 181.1200 15.54288313  5724
STARLINK-37472          
1 69172U 26111AA  26169.25002315  .00022626  00000+0  41392-3 0  9997
2 69172  53.1598 147.4363 0000787 102.4421 250.2860 15.49292238  5724
STARLINK-37461          
1 69173U 26111AB  26169.13741708  .00033792  00000+0  61274-3 0  9998
2 69173  53.1599 148.8748 0001166  80.8336 279.2805 15.49321409  4388
STARLINK-37333          
1 69174U 26111AC  26169.25002315  .00030264  00000+0  55095-3 0  9991
2 69174  53.1602 147.1414 0000695  74.5196  65.0148 15.49264637  5725
STARLINK-37385          
1 69175U 26111AD  26169.12973940  .00031002  00000+0  56267-3 0  9992
2 69175  53.1595 148.8178 0002184 138.6360 221.4815 15.49337789  4381
STARLINK-37414          
1 69176U 26111AE  26169.25002315  .00051435  00000+0  92799-3 0  9998
2 69176  53.1604 146.9471 0001460 103.2283 131.4767 15.49271738  5722
STRIX-7                 
1 69177U 26112A   26169.23691877  .00001562  00000+0  13632-3 0  9990
2 69177  44.9069 186.9358 0023163  53.1879 307.1113 15.01438734  4031
SHENZHOU-23 (SZ-23)     
1 69180U 26113A   26169.19275359  .00019911  00000+0  23482-3 0  9994
2 69180  41.4698 315.8819 0007397  85.5010 274.6674 15.60850984293644
STARLINK-37380          
1 69182U 26114A   26169.29617925  .00150779  00000+0  85525-3 0  9991
2 69182  53.1568 196.9744 0001444 128.1861 231.9291 15.78099853  4945
STARLINK-37089          
1 69183U 26114B   26169.29524755  .00204216  00000+0  11529-2 0  9998
2 69183  53.1572 196.9686 0000767  90.8821 269.2288 15.78039390  4944
STARLINK-37428          
1 69184U 26114C   26169.29384103  .00167465  00000+0  94823-3 0  9993
2 69184  53.1569 196.9591 0000947  65.6301 294.4819 15.78085466  4944
